EUTELSAT 5 WEST A       
1 27460U 02035A   18338.80943088 -.00000044  00000-0  00000-0 0  9991
2 27460   0.0631  56.6342 0004923 201.9779 101.3460  1.00272624 60038
N-STAR C                
1 27461U 02035B   18338.64460549 -.00000316  00000-0  00000+0 0  9991
2 27461   5.6135  61.9118 0001079 331.7883  47.7258  1.00267778 60072
COSMOS 2390             
1 27464U 02036A   18339.11565527  .00000045  00000-0  24908-3 0  9995
2 27464  82.4840 264.9996 0025041 153.3606 206.8769 12.44568054745599
COSMOS 2391             
1 27465U 02036B   18338.71522311  .00000036  00000-0  18132-3 0  9997
2 27465  82.4842 262.9131 0025748 151.5172 208.7326 12.44885205745728
EUTELSAT 36 WEST A      
1 27508U 02040A   18338.26343418 -.00000137  00000-0  00000+0 0  9993
2 27508   0.4226  88.0568 0005685 237.4225  34.4973  0.98294332 59657
METEOSAT-8 (MSG-1)      
1 27509U 02040B   18338.83643324  .00000135  00000-0  00000-0 0  9994
2 27509   5.7590  56.3327 0001345 281.0933  78.6801  1.00277246 59672
INTELSAT 906 (IS-906)   
1 27513U 02041A   18338.91739190  .00000012  00000-0  00000-0 0  9990
2 27513   0.0212 285.9585 0002402 332.9394 209.2042  1.00272432 59451
KALPANA-1 (METSAT 1)    
1 27525U 02043A   18338.70937043 -.00000006  00000-0  00000-0 0  9993
2 27525   8.5658  51.5265 0001597  67.9082 291.9795  0.98336818 59432
HISPASAT 1D             
1 27528U 02044A   18338.82684094 -.00000218  00000-0  00000+0 0  9999
2 27528   0.0255 333.8271 0004804 302.3015  65.1322  1.00272219 59361
TDRS 10                 
1 27566U 02055A   18338.42727674  .00000088  00000-0  00000+0 0  9995
2 27566   5.9474  56.0828 0008807 235.3488 124.3686  1.00275305 58637
NSS-6                   
1 27603U 02057A   18338.92358566 -.00000272  00000-0  00000-0 0  9991
2 27603   0.0405 110.9112 0002735 152.3252 237.9471  1.00272006 58511
LATINSAT B              
1 27606U 02058B   18338.56918760 -.00000036  00000-0  16569-4 0  9992
2 27606  64.5563 356.7380 0087476 300.6784  58.5717 14.72183342856663
SAUDISAT 1C (SO-50)     
1 27607U 02058C   18338.87750224 -.00000040  00000-0  15328-4 0  9993
2 27607  64.5552 288.2486 0079235 293.7328  65.5477 14.75502172858143
LATINSAT A              
1 27612U 02058H   18338.92008311 -.00000049  00000-0  13287-4 0  9999
2 27612  64.5537 166.5624 0059994 275.3355  84.0906 14.79381960860274
NIMIQ 2                 
1 27632U 02062A   18339.17134023 -.00000258  00000-0  00000+0 0  9990
2 27632   3.1228  79.3655 0007157 166.1326 193.4772  0.99695283 58285
CORIOLIS                
1 27640U 03001A   18339.06570906  .00000013  00000-0  27021-4 0  9990
2 27640  98.7356 346.8144 0013678 204.1149 224.1865 14.18995057823948
SORCE                   
1 27651U 03004A   18338.80401455  .00000037  00000-0  18149-4 0  9995
2 27651  39.9948 216.1598 0021072  37.0255 323.1983 14.88931198860646
NAVSTAR 51 (USA 166)    
1 27663U 03005A   18338.70283653 -.00000074  00000-0  00000-0 0  9991
2 27663  56.4473 323.9851 0101201  28.5763 158.0794  2.00556478116124
INTELSAT 907 (IS-907)   
1 27683U 03007A   18337.87455049 -.00000205  00000-0  00000-0 0  9998
2 27683   0.0196 252.2217 0002514 357.8463 109.9187  1.00272456 57849
NAVSTAR 52 (USA 168)    
1 27704U 03010A   18338.41392095 -.00000079  00000-0  00000+0 0  9996
2 27704  54.2188  76.0563 0247849 273.6194  29.0021  2.00574587114911
GALAXY 12 (G-12)        
1 27715U 03013B   18338.66353569  .00000057  00000-0  00000-0 0  9997
2 27715   0.2042  96.7838 0002733 176.7534 269.7688  1.00272964 24554
ASIASAT 4               
1 27718U 03014A   18338.91224498  .00000151  00000-0  00000-0 0  9992
2 27718   0.0418 103.9824 0000324 143.5434 192.7883  1.00274194 17701
HELLAS-SAT 2            
1 27811U 03020A   18338.91241944  .00000150  00000-0  00000-0 0  9997
2 27811   0.6223  99.8263 0007393 151.3569 189.9545  1.00271405 15268
THURAYA-2               
1 27825U 03026A   18338.69808115  .00000125  00000-0  00000+0 0  9993
2 27825   5.3921  31.1291 0004547 217.4469 120.1954  1.00273982 56742
OPTUS C1                
1 27831U 03028B   18338.86391625 -.00000152  00000-0  00000-0 0  9996
2 27831   0.1293 113.9662 0004107 139.0896 287.2606  1.00270198 25471
MOST                    
1 27843U 03031D   18338.90901559  .00000002  00000-0  21282-4 0  9993
2 27843  98.7123 344.3550 0008937 270.4757  89.5395 14.20579382800018
CUTE-1 (CO-55)          
1 27844U 03031E   18338.99540878  .00000051  00000-0  42968-4 0  9994
2 27844  98.6861 345.1284 0008961 234.0947 125.9400 14.22147735800471
CUBESAT XI-IV (CO-57)   
1 27848U 03031J   18338.72101519  .00000039  00000-0  37420-4 0  9997
2 27848  98.6944 345.3093 0008740 246.6194 113.4064 14.21747333800292
ECHOSTAR 12 (RAINBOW 1) 
1 27852U 03033A   18338.88738272 -.00000200  00000-0  00000-0 0  9994
2 27852   0.0162 308.1455 0001447 278.8867  79.6750  1.00271395 56376
GALAXY 23 (G-23)        
1 27854U 03034A   18338.88040384  .00000011  00000-0  00000-0 0  9996
2 27854   0.0090 344.1323 0003158 276.8003   8.6798  1.00270524 56156
SCISAT 1                
1 27858U 03036A   18339.14212507  .00000040  00000-0  10614-4 0  9998
2 27858  73.9328 210.7037 0008291 197.2126 162.8768 14.77224927824919
COSMOS 2400             
1 27868U 03037A   18338.72100622  .00000030  00000-0  14390-3 0  9990
2 27868  82.4717 254.9592 0021758 319.4708 126.2915 12.45135432695212
COSMOS 2401             
1 27869U 03037B   18338.73992633  .00000030  00000-0  14330-3 0  9997
2 27869  82.4710 252.5204 0022401 318.0310 131.9208 12.45454919695391
MOZHAYETS 4 (RS-22)     
1 27939U 03042A   18339.19319253  .00000133  00000-0  32362-4 0  9993
2 27939  98.0127 114.1738 0012128 332.2847  27.7710 14.66736833811884
GALAXY 13 (HORIZONS-1)  
1 27954U 03044A   18338.66397188  .00000046  00000-0  00000-0 0  9999
2 27954   0.0374  98.0580 0001563  89.5734 357.8257  1.00269153 18995
IRS-P6 (RESOURCESAT-1)  
1 28051U 03046A   18339.05493221 -.00000689  00000-0 -22619-3 0  9997
2 28051  98.5395  54.3668 0056619 247.9465 111.5620 14.34147692786067
CHUANGXIN 1 (CX-1)      
1 28058U 03049B   18338.42309494  .00000017  00000-0  17444-4 0  9999
2 28058  98.6844 133.6442 0012455 201.7017 158.3648 14.46944043798213
YAMAL 202               
1 28089U 03053A   18338.98087762  .00000118  00000-0  00000-0 0  9998
2 28089   0.0539 109.2473 0004245 144.9721 221.6307  1.00271226 55096
NAVSTAR 53 (USA 175)    
1 28129U 03058A   18338.73604610  .00000039  00000-0  00000-0 0  9990
2 28129  53.0720 135.3732 0072196 276.4257  82.7425  2.00566665109603
EXPRESS-AM22 (SESAT 2)  
1 28134U 03060A   18338.84882441 -.00000139  00000-0  00000+0 0  9992
2 28134   1.6003  88.7908 0000329 219.8829 150.6243  1.00270728 54684
AMC-10 (GE-10)          
1 28154U 04003A   18338.64192045  .00000086  00000-0  00000-0 0  9995
2 28154   0.0190 303.8843 0000293 247.9485 337.6827  1.00274510 54302
ABS-4 (MOBISAT-1)       
1 28184U 04007A   18339.06037168  .00000040  00000-0  00000+0 0  9992
2 28184   0.0146 323.4273 0002522 301.1784 251.9522  1.00270816 53992
EUTELSAT 7A             
1 28187U 04008A   18339.12134961  .00000046  00000-0  00000+0 0  9998
2 28187   0.0644   1.3284 0004983 235.4333 247.8159  1.00269401 53992
NAVSTAR 54 (USA 177)    
1 28190U 04009A   18338.44436424 -.00000086  00000-0  00000+0 0  9991
2 28190  56.2259  24.7994 0091856  75.2666  74.3401  2.00571355107787
SHIYAN 1 (SY-1)         
1 28220U 04012A   18338.42606492  .00000414  00000-0  38424-4 0  9991
2 28220  97.7679 295.6892 0013517 148.7378 211.4651 14.99674576796502
DIRECTV 7S              
1 28238U 04016A   18339.12593148 -.00000000  00000-0  00000+0 0  9991
2 28238   0.0112 343.3264 0002776 276.6588 100.1781  1.00271418 53479
AMC-11 (GE-11)          
1 28252U 04017A   18338.73489476  .00000067  00000-0  00000+0 0  9994
2 28252   0.0167   4.4303 0002401 252.0510 310.5679  1.00271275 53117
FORMOSAT-2 (ROCSAT 2)   
1 28254U 04018A   18339.12767318  .00000107  00000-0  10000-3 0  9995
2 28254  98.7837  26.1692 0001948  54.3381 358.6460 14.00628053743620
INTELSAT 10-02          
1 28358U 04022A   18338.90448097 -.00000013  00000-0  00000-0 0  9993
2 28358   0.0185  10.0922 0000843 350.5256  37.6545  1.00269968 53062
NAVSTAR 55 (USA 178)    
1 28361U 04023A   18338.76335932  .00000075  00000-0  00000-0 0  9992
2 28361  54.0512 198.1719 0127871 227.9464  65.3512  2.00561872105857
APSTAR 5 (TELSTAR 18)   
1 28364U 04024A   18338.93213479 -.00000296  00000-0  00000-0 0  9992
2 28364   0.1290 102.8494 0002589 133.5848 310.8371  1.00270426 53037
APRIZESAT 2             
1 28366U 04025A   18338.51268778 -.00000019  00000-0  81694-5 0  9997
2 28366  98.3143 240.0559 0106543 247.8123 111.1731 14.36659349756458
SAUDICOMSAT 1           
1 28369U 04025D   18338.42199145  .00000025  00000-0  17134-4 0  9994
2 28369  98.2653 285.1642 0033624 174.6075 185.5489 14.52464901764428
SAUDICOMSAT 2           
1 28370U 04025E   18338.77969780  .00000021  00000-0  17927-4 0  9990
2 28370  98.3639 280.6676 0057160 321.0141  38.6937 14.47403545761913
SAUDISAT 2              
1 28371U 04025F   18338.44440752 -.00000015  00000-0  70609-5 0  9999
2 28371  98.2038 285.5041 0026396 123.7741 236.5966 14.54323113765630
APRIZESAT 1             
1 28372U 04025G   18338.81080221 -.00000029  00000-0  44281-5 0  9994
2 28372  98.3214 282.6576 0045205 251.3525 108.2758 14.49569061763110
AURA                    
1 28376U 04026A   18338.85204183  .00000062  00000-0  23880-4 0  9995
2 28376  98.2134 279.6395 0000763  91.0254 269.1031 14.57113156765322
ANIK F2                 
1 28378U 04027A   18338.44007889 -.00000052  00000-0  00000-0 0  9992
2 28378   0.0098 312.4110 0000211  65.3811 102.7756  1.00271734 13701
COSMOS 2407             
1 28380U 04028A   18339.03091569  .00000053  00000-0  38990-4 0  9993
2 28380  82.9587 311.6734 0040270  27.0692 333.2559 13.76059674721699
SJ-6A                   
1 28413U 04035A   18338.86112164 -.00000058  00000-0 -93842-8 0  9991
2 28413  97.7965 353.9182 0017552  41.8481 318.4093 14.94343340775271
